{
  "norad_id": 57964,
  "name": "STARLINK-30396",
  "history": [
    {
      "epoch": "2026-03-28T17:19:48.063648Z",
      "apogee_km": 484.0606392534146,
      "perigee_km": 482.0107952924018,
      "latitude_deg": -2.2786413650463012e-05,
      "longitude_deg": 142.73785610737067,
      "height_km": 482.659391378092,
      "semi_major_axis_km": 6861.172717272908,
      "eccentricity": 0.00014938,
      "inclination_deg": 43.0011,
      "raan_deg": 228.8266,
      "arg_perigee_deg": 278.5986,
      "mean_anomaly_deg": 81.4696,
      "mean_motion_rev_day": 15.27584468
    }
  ]
}